NORAD_CAT_ID,OBJECT_NAME,OBJECT_TYPE,EPOCH,MEAN_MOTION,ECCENTRICITY,INCLINATION,RA_OF_ASC_NODE,ARG_OF_PERICENTER,MEAN_ANOMALY,BSTAR,MEAN_MOTION_DOT,MEAN_MOTION_DDOT,TLE_LINE0,TLE_LINE1,TLE_LINE2,SEMIMAJOR_AXIS,PERIOD,APOGEE,PERIGEE,DECAYED
55665.0,STARLINK-5474,PAYLOAD,2024-05-08 12:58:11,14.98330485,0.0002939,70.0004,54.1027,272.5832,87.4991,-0.00011384,-1.451e-05,0.0,0 STARLINK-5474,1 55665U 23021AP  24129.54040635 -.00001451  00000-0 -11384-3 0  9993,2 55665  70.0004  54.1027 0002939 272.5832  87.4991 14.98330485 68907,6950.191,96.107,574.099,570.014,0.0
55665.0,STARLINK-5474,PAYLOAD,2024-05-08 20:58:50,14.98332343,0.0003143,69.9999,53.2605,272.2027,87.8772,7.1645e-06,-8e-08,0.0,0 STARLINK-5474,1 55665U 23021AP  24129.87420058 -.00000008  00000-0  71645-5 0  9994,2 55665  69.9999  53.2605 0003143 272.2027  87.8772 14.98332343 68658,6950.186,96.107,574.235,569.866,0.0
55665.0,STARLINK-5474,PAYLOAD,2024-05-08 22:34:58,14.98332686,0.0003144,70.0001,53.0922,272.2237,87.8562,1.2212e-05,5.3e-07,0.0,0 STARLINK-5474,1 55665U 23021AP  24129.94096016  .00000053  00000-0  12212-4 0  9998,2 55665  70.0001  53.0922 0003144 272.2237  87.8562 14.98332686 68960,6950.185,96.107,574.235,569.864,0.0
55665.0,STARLINK-5474,PAYLOAD,2024-05-09 04:59:30,14.98342286,0.0002984,70.0005,52.4189,271.8422,88.2395,6.0042e-05,6.24e-06,0.0,0 STARLINK-5474,1 55665U 23021AP  24130.20799194  .00000624  00000-0  60042-4 0  9994,2 55665  70.0005  52.4189 0002984 271.8422  88.2395 14.98342286 68702,6950.155,96.106,574.094,569.946,0.0
55665.0,STARLINK-5474,PAYLOAD,2024-05-09 21:00:52,14.98322833,0.0002927,70.0009,50.7355,274.2666,85.8159,9.8909e-05,1.087e-05,0.0,0 STARLINK-5474,1 55665U 23021AP  24130.87560258  .00001087  00000-0  98909-4 0  9991,2 55665  70.0009  50.7355 0002927 274.2666  85.8159 14.98322833 68804,6950.215,96.107,574.114,570.046,0.0
55665.0,STARLINK-5474,PAYLOAD,2024-05-09 22:37:00,14.98323168,0.0002926,70.0009,50.5672,274.2846,85.7979,9.9678e-05,1.096e-05,0.0,0 STARLINK-5474,1 55665U 23021AP  24130.94236260  .00001096  00000-0  99678-4 0  9996,2 55665  70.0009  50.5672 0002926 274.2846  85.7979 14.98323168 69119,6950.214,96.107,574.113,570.045,0.0
55665.0,STARLINK-5474,PAYLOAD,2024-05-10 11:26:04,14.98330602,0.0002547,70.0025,49.2222,267.1719,92.9148,-8.9052e-05,-1.155e-05,0.0,0 STARLINK-5474,1 55665U 23021AP  24131.47644345 -.00001155  00000-0 -89052-4 0  9995,2 55665  70.0025  49.2222 0002547 267.1719  92.9148 14.98330602 69199,6950.191,96.107,573.826,570.286,0.0
55665.0,STARLINK-5474,PAYLOAD,2024-05-10 21:02:52,14.98330934,0.0002759,70.0016,48.2115,272.0169,88.0674,-4.2486e-05,-6e-06,0.0,0 STARLINK-5474,1 55665U 23021AP  24131.87700224 -.00000600  00000-0 -42486-4 0  9992,2 55665  70.0016  48.2115 0002759 272.0169  88.0674 14.98330934 68959,6950.19,96.107,573.973,570.137,0.0
55665.0,STARLINK-5474,PAYLOAD,2024-05-10 22:39:01,14.98331491,0.0002744,70.0016,48.0432,272.3009,87.7835,-3.5636e-05,-5.18e-06,0.0,0 STARLINK-5474,1 55665U 23021AP  24131.94376166 -.00000518  00000-0 -35636-4 0  9991,2 55665  70.0016  48.0432 0002744 272.3009  87.7835 14.98331491 69268,6950.188,96.107,573.96,570.146,0.0
55665.0,STARLINK-5474,PAYLOAD,2024-05-11 05:03:31,14.98350559,0.0002532,70.0029,47.3698,240.6243,119.4664,0.00020793,2.39e-05,0.0,0 STARLINK-5474,1 55665U 23021AP  24132.21077973  .00002390  00000-0  20793-3 0  9991,2 55665  70.0029  47.3698 0002532 240.6243 119.4664 14.98350559 69002,6950.129,96.106,573.754,570.235,0.0
55665.0,STARLINK-5474,PAYLOAD,2024-05-11 11:28:01,14.98371131,0.0001899,70.002,46.6979,273.7652,86.329,0.00036611,4.283e-05,0.0,0 STARLINK-5474,1 55665U 23021AP  24132.47780003  .00004283  00000-0  36611-3 0  9993,2 55665  70.0020  46.6979 0001899 273.7652  86.3290 14.98371131 69043,6950.066,96.104,573.251,570.611,0.0
55665.0,STARLINK-5474,PAYLOAD,2024-05-11 21:04:55,14.98297338,0.0004189,70.0016,45.6871,289.3689,70.7017,-0.00043888,-5.322e-05,0.0,0 STARLINK-5474,1 55665U 23021AP  24132.87841641 -.00005322  00000-0 -43888-3 0  9994,2 55665  70.0016  45.6871 0004189 289.3689  70.7017 14.98297338 69103,6950.294,96.109,575.07,569.247,0.0
55665.0,STARLINK-5474,PAYLOAD,2024-05-11 22:41:08,14.98231015,0.0002427,70.0017,45.5188,256.6793,103.4096,-0.001182,-0.00014131,0.0,0 STARLINK-5474,1 55665U 23021AP  24132.94523635 -.00014131  00000-0 -11820-2 0  9990,2 55665  70.0017  45.5188 0002427 256.6793 103.4096 14.98231015 69415,6950.499,96.113,574.051,570.677,0.0
55665.0,STARLINK-5474,PAYLOAD,2024-05-12 03:29:33,14.98230569,0.0002878,70.0008,45.0138,264.4637,95.6194,-0.0011676,-0.00013961,0.0,0 STARLINK-5474,1 55665U 23021AP  24133.14552667 -.00013961  00000-0 -11676-2 0  9999,2 55665  70.0008  45.0138 0002878 264.4637  95.6194 14.98230569 69143,6950.5,96.113,574.366,570.365,0.0
55665.0,STARLINK-5474,PAYLOAD,2024-05-12 11:30:11,14.98272946,0.0002979,70.0015,44.1722,268.5048,91.577,-0.00056208,-6.783e-05,0.0,0 STARLINK-5474,1 55665U 23021AP  24133.47930221 -.00006783  00000-0 -56208-3 0  9996,2 55665  70.0015  44.1722 0002979 268.5048  91.5770 14.98272946 69198,6950.369,96.111,574.305,570.164,0.0
55665.0,STARLINK-5474,PAYLOAD,2024-05-12 21:06:59,14.98291576,0.0002801,70.0014,43.1621,270.8271,89.2567,-0.00028697,-3.512e-05,0.0,0 STARLINK-5474,1 55665U 23021AP  24133.87985512 -.00003512  00000-0 -28697-3 0  9991,2 55665  70.0014  43.1621 0002801 270.8271  89.2567 14.98291576 69257,6950.312,96.109,574.123,570.23,0.0
55665.0,STARLINK-5474,PAYLOAD,2024-05-12 22:43:07,14.98292237,0.0002768,70.0013,42.9935,271.1546,88.9296,-0.0002675,-3.28e-05,0.0,0 STARLINK-5474,1 55665U 23021AP  24133.94661614 -.00003280  00000-0 -26750-3 0  9993,2 55665  70.0013  42.9935 0002768 271.1546  88.9296 14.98292237 69566,6950.31,96.109,574.099,570.251,0.0
55665.0,STARLINK-5474,PAYLOAD,2024-05-13 03:31:31,14.98299439,0.0002789,70.0005,42.4869,266.1003,93.9837,-0.00019587,-2.427e-05,0.0,0 STARLINK-5474,1 55665U 23021AP  24134.14689349 -.00002427  00000-0 -19587-3 0  9993,2 55665  70.0005  42.4869 0002789 266.1003  93.9837 14.98299439 69291,6950.287,96.109,574.091,570.214,0.0
55665.0,STARLINK-5474,PAYLOAD,2024-05-13 11:32:10,14.98334686,0.0002804,69.9999,41.6457,267.6445,92.4393,-0.00032168,-3.929e-05,0.0,0 STARLINK-5474,1 55665U 23021AP  24134.48067857 -.00003929  00000-0 -32168-3 0  9992,2 55665  69.9999  41.6457 0002804 267.6445  92.4393 14.98334686 69349,6950.178,96.107,573.992,570.095,0.0
55665.0,STARLINK-5474,PAYLOAD,2024-05-13 17:56:42,14.98321027,0.0004084,70.0004,40.9725,263.526,96.5434,-1.1305e-07,-9.4e-07,0.0,0 STARLINK-5474,1 55665U 23021AP  24134.74771445 -.00000094  00000-0 -11305-6 0  9999,2 55665  70.0004  40.9725 0004084 263.5260  96.5434 14.98321027 69684,6950.221,96.108,574.924,569.247,0.0
55665.0,STARLINK-5474,PAYLOAD,2024-05-14 03:33:30,14.9831349,0.0002882,70.0014,39.9626,263.825,96.2581,0.00073084,8.634e-05,0.0,0 STARLINK-5474,1 55665U 23021AP  24135.14826428  .00008634  00000-0  73084-3 0  9991,2 55665  70.0014  39.9626 0002882 263.8250  96.2581 14.98313490 69448,6950.244,96.108,574.112,570.106,0.0
55665.0,STARLINK-5474,PAYLOAD,2024-05-14 11:34:10,14.98301359,0.0003253,69.9999,39.1207,257.6576,102.4219,0.0012336,0.00014646,0.0,0 STARLINK-5474,1 55665U 23021AP  24135.48206430  .00014646  00000-0  12336-2 0  9995,2 55665  69.9999  39.1207 0003253 257.6576 102.4219 14.98301359 69796,6950.281,96.109,574.407,569.886,0.0
55665.0,STARLINK-5474,PAYLOAD,2024-05-14 22:47:03,14.98372032,0.0003348,70.0021,37.9419,264.8756,95.2021,0.0008285,9.817e-05,0.0,0 STARLINK-5474,1 55665U 23021AP  24135.94934573  .00009817  00000-0  82850-3 0  9995,2 55665  70.0021  37.9419 0003348 264.8756  95.2021 14.98372032 69865,6950.063,96.104,574.255,569.601,0.0
55665.0,STARLINK-5474,PAYLOAD,2024-05-15 05:11:33,14.98398924,0.0003066,70.0008,37.2687,265.9287,94.1522,0.00093747,0.0001113,0.0,0 STARLINK-5474,1 55665U 23021AP  24136.21635629  .00011130  00000-0  93747-3 0  9994,2 55665  70.0008  37.2687 0003066 265.9287  94.1522 14.98398924 69602,6949.98,96.103,573.976,569.714,0.0
55665.0,STARLINK-5474,PAYLOAD,2024-05-15 21:12:58,14.98350027,0.0003061,70.0006,35.5862,258.2825,101.7991,-0.00024408,-3.006e-05,0.0,0 STARLINK-5474,1 55665U 23021AP  24136.88400501 -.00003006  00000-0 -24408-3 0  9999,2 55665  70.0006  35.5862 0003061 258.2825 101.7991 14.98350027 69702,6950.131,96.106,574.123,569.869,0.0
55665.0,STARLINK-5474,PAYLOAD,2024-05-15 22:49:06,14.98350172,0.0002862,70.0011,35.4185,266.9381,93.1451,-0.00024159,-2.976e-05,0.0,0 STARLINK-5474,1 55665U 23021AP  24136.95076416 -.00002976  00000-0 -24159-3 0  9999,2 55665  70.0011  35.4185 0002862 266.9381  93.1451 14.98350172 70018,6950.131,96.106,573.985,570.006,0.0
55665.0,STARLINK-5474,PAYLOAD,2024-05-16 10:02:02,14.98337861,0.0001866,70.0054,34.2378,280.0314,80.0634,-0.00030014,-3.673e-05,0.0,0 STARLINK-5474,1 55665U 23021AP  24137.41808852 -.00003673  00000-0 -30014-3 0  9990,2 55665  70.0054  34.2378 0001866 280.0314  80.0634 14.98337861 69782,6950.169,96.106,573.33,570.737,0.0
55665.0,STARLINK-5474,PAYLOAD,2024-05-16 22:51:06,14.98352859,0.000211,70.0049,32.8946,263.4549,96.637,-0.00071582,-8.628e-05,0.0,0 STARLINK-5474,1 55665U 23021AP  24137.95216167 -.00008628  00000-0 -71582-3 0  9991,2 55665  70.0049  32.8946 0002110 263.4549  96.6370 14.98352859 70167,6950.122,96.106,573.454,570.521,0.0
55665.0,STARLINK-5474,PAYLOAD,2024-05-17 10:04:04,14.98333062,0.0003031,70.0016,31.7161,259.42,100.6618,-0.00092634,-0.00011129,0.0,0 STARLINK-5474,1 55665U 23021AP  24138.41949461 -.00011129  00000-0 -92634-3 0  9994,2 55665  70.0016  31.7161 0003031 259.4200 100.6618 14.98333062 69939,6950.183,96.107,574.155,569.942,0.0
55665.0,STARLINK-5474,PAYLOAD,2024-05-17 22:53:09,14.98298932,0.0004106,69.9991,30.3664,271.605,88.4639,-0.00021236,-2.624e-05,0.0,0 STARLINK-5474,1 55665U 23021AP  24138.95358576 -.00002624  00000-0 -21236-3 0  9994,2 55665  69.9991  30.3664 0004106 271.6050  88.4639 14.98298932 70310,6950.289,96.109,575.008,569.3,0.0
